[{"OBJECT_NAME":"SNAP-3 JIMI","OBJECT_ID":"2015-058M","EPOCH":"2026-03-09T15:09:34.376832","MEAN_MOTION":15.01135599,"ECCENTRICITY":0.0105534,"INCLINATION":64.7662,"RA_OF_ASC_NODE":174.484,"ARG_OF_PERICENTER":96.511,"MEAN_ANOMALY":264.8035,"EPHEMERIS_TYPE":0,"CLASSIFICATION_TYPE":"U","NORAD_CAT_ID":40975,"ELEMENT_SET_NO":999,"REV_AT_EPOCH":9927,"BSTAR":0.00051665,"MEAN_MOTION_DOT":7.303e-5,"MEAN_MOTION_DDOT":0},{"OBJECT_NAME":"STARLINK-4173","OBJECT_ID":"2022-086AV","EPOCH":"2026-03-09T14:13:36.522048","MEAN_MOTION":15.088436,"ECCENTRICITY":0.0001227,"INCLINATION":53.2169,"RA_OF_ASC_NODE":184.5569,"ARG_OF_PERICENTER":90.3635,"MEAN_ANOMALY":269.7498,"EPHEMERIS_TYPE":0,"CLASSIFICATION_TYPE":"U","NORAD_CAT_ID":53285,"ELEMENT_SET_NO":999,"REV_AT_EPOCH":20117,"BSTAR":7.178e-6,"MEAN_MOTION_DOT":-1.74e-6,"MEAN_MOTION_DDOT":0}]
